[{"OBJECT_NAME":"NUSAT-41 (C PAYNE-G)","OBJECT_ID":"2023-084N","EPOCH":"2026-03-09T21:55:54.837696","MEAN_MOTION":15.29680045,"ECCENTRICITY":0.00062175,"INCLINATION":97.5351,"RA_OF_ASC_NODE":204.1011,"ARG_OF_PERICENTER":322.2064,"MEAN_ANOMALY":37.8738,"EPHEMERIS_TYPE":0,"CLASSIFICATION_TYPE":"U","NORAD_CAT_ID":56944,"ELEMENT_SET_NO":999,"REV_AT_EPOCH":15260,"BSTAR":0.00059912824,"MEAN_MOTION_DOT":0.0001718,"MEAN_MOTION_DDOT":0},{"OBJECT_NAME":"STARLINK-31303","OBJECT_ID":"2024-049J","EPOCH":"2026-03-09T12:17:45.561696","MEAN_MOTION":15.27569977,"ECCENTRICITY":0.00017162,"INCLINATION":43.0029,"RA_OF_ASC_NODE":133.6902,"ARG_OF_PERICENTER":276.0007,"MEAN_ANOMALY":84.0649,"EPHEMERIS_TYPE":0,"CLASSIFICATION_TYPE":"U","NORAD_CAT_ID":59239,"ELEMENT_SET_NO":999,"REV_AT_EPOCH":11250,"BSTAR":-3.420973e-6,"MEAN_MOTION_DOT":-3.56e-6,"MEAN_MOTION_DDOT":0}]
